OPS 7218 (TRANSIT 16)   
1 02807U 67048A   26062.86770862  .00000142  00000+0  20490-3 0  9996
2 02807  89.6811 351.3550 0018312 239.6635 188.7246 13.50742553893712
OPS 4947 (TRANSIT 17)   
1 02965U 67092A   26062.83624161  .00000179  00000+0  24850-3 0  9991
2 02965  89.2556  18.2567 0047972   2.9722  53.7914 13.53476241881944
OPS 7034 (TRANSIT 18)   
1 03133U 68012A   26063.15326737  .00000160  00000+0  22806-3 0  9995
2 03133  90.0217 273.8574 0072214 295.4300 181.5522 13.51587922580185
NNSS 19 (TRANSIT 19)    
1 04507U 70067A   26063.00252367  .00000148  00000+0  19303-3 0  9999
2 04507  90.0049 234.5774 0173297  57.8978 303.8864 13.51336907733198
NNSS 20 (TRANSIT 20)    
1 06909U 73081A   26063.10884459  .00000253  00000+0  24791-3 0  9994
2 06909  89.8511 253.8164 0154134 193.5608 166.1393 13.71472679814769
TRANSAT                 
1 10457U 77106A   26063.08251590  .00000094  00000+0  13383-3 0  9998
2 10457  89.6396  75.6785 0024231 322.6057  98.8076 13.48957143378400
NOVA 1                  
1 12458U 81044A   26063.16878856  .00000054  00000+0  10593-3 0  9992
2 12458  89.8424  90.1995 0012662 235.2961 192.2806 13.23286848162636
NOVA 3                  
1 15362U 84110A   26063.04983492  .00000085  00000+0  18044-3 0  9999
2 15362  90.1127  81.4547 0033412 104.5572 281.3109 13.23056062997743
OSCAR 30                
1 15935U 85066A   26063.14632594  .00000101  00000+0  16776-3 0  9990
2 15935  90.1553 101.1481 0166784 213.4569 207.5659 13.36094000975401
OSCAR 24                
1 15936U 85066B   26063.14073473  .00000107  00000+0  18010-3 0  9995
2 15936  90.1690  93.7109 0167621 220.0475 207.7528 13.35951798977301
POLAR BEAR              
1 17070U 86088A   26062.82224887  .00000130  00000+0  12351-3 0  9990
2 17070  89.6249 180.5492 0037818 233.9998 239.5089 13.75268893970930
OSCAR 27                
1 18361U 87080A   26063.01116905  .00000117  00000+0  17969-3 0  9995
2 18361  90.3647  82.2739 0103487 352.9630   7.0059 13.44923475886490
OSCAR 29                
1 18362U 87080B   26063.12473223  .00000112  00000+0  17294-3 0  9993
2 18362  90.3657  82.7435 0105876  15.8412  51.5324 13.44463700886036
OSCAR 23                
1 19070U 88033A   26062.83334544  .00000098  00000+0  18462-3 0  9999
2 19070  90.3283  18.9177 0188195 315.3849 100.2192 13.27802734833299
OSCAR 32                
1 19071U 88033B   26062.80061917  .00000079  00000+0  14685-3 0  9990
2 19071  90.3288  19.0530 0186290 302.1797 115.7774 13.27967366833414
NOVA 2                  
1 19223U 88052A   26063.05872270  .00000092  00000+0  19627-3 0  9996
2 19223  89.9780  78.1340 0031436 146.5431 234.5441 13.22946885820230
OSCAR 25                
1 19419U 88074A   26062.82794264  .00000128  00000+0  20410-3 0  9999
2 19419  90.0410  20.5175 0096877  16.1331  42.6986 13.42640433837285
