[{"OBJECT_NAME":"OPS 7218 (TRANSIT 16)","OBJECT_ID":"1967-048A","EPOCH":"2026-03-03T20:49:30.024768","MEAN_MOTION":13.50742553,"ECCENTRICITY":0.0018312,"INCLINATION":89.6811,"RA_OF_ASC_NODE":351.355,"ARG_OF_PERICENTER":239.6635,"MEAN_ANOMALY":188.7246,"EPHEMERIS_TYPE":0,"CLASSIFICATION_TYPE":"U","NORAD_CAT_ID":2807,"ELEMENT_SET_NO":999,"REV_AT_EPOCH":89371,"BSTAR":0.0002049,"MEAN_MOTION_DOT":1.42e-6,"MEAN_MOTION_DDOT":0},{"OBJECT_NAME":"OPS 4947 (TRANSIT 17)","OBJECT_ID":"1967-092A","EPOCH":"2026-03-03T20:04:11.275104","MEAN_MOTION":13.53476241,"ECCENTRICITY":0.0047972,"INCLINATION":89.2556,"RA_OF_ASC_NODE":18.2567,"ARG_OF_PERICENTER":2.9722,"MEAN_ANOMALY":53.7914,"EPHEMERIS_TYPE":0,"CLASSIFICATION_TYPE":"U","NORAD_CAT_ID":2965,"ELEMENT_SET_NO":999,"REV_AT_EPOCH":88194,"BSTAR":0.0002485,"MEAN_MOTION_DOT":1.79e-6,"MEAN_MOTION_DDOT":0},{"OBJECT_NAME":"OPS 7034 (TRANSIT 18)","OBJECT_ID":"1968-012A","EPOCH":"2026-03-04T03:40:42.300768","MEAN_MOTION":13.51587922,"ECCENTRICITY":0.0072214,"INCLINATION":90.0217,"RA_OF_ASC_NODE":273.8574,"ARG_OF_PERICENTER":295.43,"MEAN_ANOMALY":181.5522,"EPHEMERIS_TYPE":0,"CLASSIFICATION_TYPE":"U","NORAD_CAT_ID":3133,"ELEMENT_SET_NO":999,"REV_AT_EPOCH":58018,"BSTAR":0.00022806,"MEAN_MOTION_DOT":1.6e-6,"MEAN_MOTION_DDOT":0},{"OBJECT_NAME":"NNSS 19 (TRANSIT 19)","OBJECT_ID":"1970-067A","EPOCH":"2026-03-04T00:03:38.045088","MEAN_MOTION":13.51336907,"ECCENTRICITY":0.0173297,"INCLINATION":90.0049,"RA_OF_ASC_NODE":234.5774,"ARG_OF_PERICENTER":57.8978,"MEAN_ANOMALY":303.8864,"EPHEMERIS_TYPE":0,"CLASSIFICATION_TYPE":"U","NORAD_CAT_ID":4507,"ELEMENT_SET_NO":999,"REV_AT_EPOCH":73319,"BSTAR":0.00019303,"MEAN_MOTION_DOT":1.48e-6,"MEAN_MOTION_DDOT":0},{"OBJECT_NAME":"NNSS 20 (TRANSIT 20)","OBJECT_ID":"1973-081A","EPOCH":"2026-03-04T02:36:44.172576","MEAN_MOTION":13.71472679,"ECCENTRICITY":0.0154134,"INCLINATION":89.8511,"RA_OF_ASC_NODE":253.8164,"ARG_OF_PERICENTER":193.5608,"MEAN_ANOMALY":166.1393,"EPHEMERIS_TYPE":0,"CLASSIFICATION_TYPE":"U","NORAD_CAT_ID":6909,"ELEMENT_SET_NO":999,"REV_AT_EPOCH":81476,"BSTAR":0.00024791,"MEAN_MOTION_DOT":2.53e-6,"MEAN_MOTION_DDOT":0},{"OBJECT_NAME":"TRANSAT","OBJECT_ID":"1977-106A","EPOCH":"2026-03-04T01:58:49.373760","MEAN_MOTION":13.48957143,"ECCENTRICITY":0.0024231,"INCLINATION":89.6396,"RA_OF_ASC_NODE":75.6785,"ARG_OF_PERICENTER":322.6057,"MEAN_ANOMALY":98.8076,"EPHEMERIS_TYPE":0,"CLASSIFICATION_TYPE":"U","NORAD_CAT_ID":10457,"ELEMENT_SET_NO":999,"REV_AT_EPOCH":37840,"BSTAR":0.00013383,"MEAN_MOTION_DOT":9.4e-7,"MEAN_MOTION_DDOT":0},{"OBJECT_NAME":"NOVA 1","OBJECT_ID":"1981-044A","EPOCH":"2026-03-04T04:03:03.331584","MEAN_MOTION":13.23286848,"ECCENTRICITY":0.0012662,"INCLINATION":89.8424,"RA_OF_ASC_NODE":90.1995,"ARG_OF_PERICENTER":235.2961,"MEAN_ANOMALY":192.2806,"EPHEMERIS_TYPE":0,"CLASSIFICATION_TYPE":"U","NORAD_CAT_ID":12458,"ELEMENT_SET_NO":999,"REV_AT_EPOCH":16263,"BSTAR":0.00010593,"MEAN_MOTION_DOT":5.4e-7,"MEAN_MOTION_DDOT":0},{"OBJECT_NAME":"NOVA 3","OBJECT_ID":"1984-110A","EPOCH":"2026-03-04T01:11:45.737088","MEAN_MOTION":13.23056062,"ECCENTRICITY":0.0033412,"INCLINATION":90.1127,"RA_OF_ASC_NODE":81.4547,"ARG_OF_PERICENTER":104.5572,"MEAN_ANOMALY":281.3109,"EPHEMERIS_TYPE":0,"CLASSIFICATION_TYPE":"U","NORAD_CAT_ID":15362,"ELEMENT_SET_NO":999,"REV_AT_EPOCH":99774,"BSTAR":0.00018044,"MEAN_MOTION_DOT":8.5e-7,"MEAN_MOTION_DDOT":0},{"OBJECT_NAME":"OSCAR 30","OBJECT_ID":"1985-066A","EPOCH":"2026-03-04T03:30:42.561216","MEAN_MOTION":13.36094,"ECCENTRICITY":0.0166784,"INCLINATION":90.1553,"RA_OF_ASC_NODE":101.1481,"ARG_OF_PERICENTER":213.4569,"MEAN_ANOMALY":207.5659,"EPHEMERIS_TYPE":0,"CLASSIFICATION_TYPE":"U","NORAD_CAT_ID":15935,"ELEMENT_SET_NO":999,"REV_AT_EPOCH":97540,"BSTAR":0.00016776,"MEAN_MOTION_DOT":1.01e-6,"MEAN_MOTION_DDOT":0},{"OBJECT_NAME":"OSCAR 24","OBJECT_ID":"1985-066B","EPOCH":"2026-03-04T03:22:39.480672","MEAN_MOTION":13.35951798,"ECCENTRICITY":0.0167621,"INCLINATION":90.169,"RA_OF_ASC_NODE":93.7109,"ARG_OF_PERICENTER":220.0475,"MEAN_ANOMALY":207.7528,"EPHEMERIS_TYPE":0,"CLASSIFICATION_TYPE":"U","NORAD_CAT_ID":15936,"ELEMENT_SET_NO":999,"REV_AT_EPOCH":97730,"BSTAR":0.0001801,"MEAN_MOTION_DOT":1.07e-6,"MEAN_MOTION_DDOT":0},{"OBJECT_NAME":"POLAR BEAR","OBJECT_ID":"1986-088A","EPOCH":"2026-03-03T19:44:02.302368","MEAN_MOTION":13.75268893,"ECCENTRICITY":0.0037818,"INCLINATION":89.6249,"RA_OF_ASC_NODE":180.5492,"ARG_OF_PERICENTER":233.9998,"MEAN_ANOMALY":239.5089,"EPHEMERIS_TYPE":0,"CLASSIFICATION_TYPE":"U","NORAD_CAT_ID":17070,"ELEMENT_SET_NO":999,"REV_AT_EPOCH":97093,"BSTAR":0.00012351,"MEAN_MOTION_DOT":1.3e-6,"MEAN_MOTION_DDOT":0},{"OBJECT_NAME":"OSCAR 27","OBJECT_ID":"1987-080A","EPOCH":"2026-03-04T00:16:05.005920","MEAN_MOTION":13.44923475,"ECCENTRICITY":0.0103487,"INCLINATION":90.3647,"RA_OF_ASC_NODE":82.2739,"ARG_OF_PERICENTER":352.963,"MEAN_ANOMALY":7.0059,"EPHEMERIS_TYPE":0,"CLASSIFICATION_TYPE":"U","NORAD_CAT_ID":18361,"ELEMENT_SET_NO":999,"REV_AT_EPOCH":88649,"BSTAR":0.00017969,"MEAN_MOTION_DOT":1.17e-6,"MEAN_MOTION_DDOT":0},{"OBJECT_NAME":"OSCAR 29","OBJECT_ID":"1987-080B","EPOCH":"2026-03-04T02:59:36.864672","MEAN_MOTION":13.444637,"ECCENTRICITY":0.0105876,"INCLINATION":90.3657,"RA_OF_ASC_NODE":82.7435,"ARG_OF_PERICENTER":15.8412,"MEAN_ANOMALY":51.5324,"EPHEMERIS_TYPE":0,"CLASSIFICATION_TYPE":"U","NORAD_CAT_ID":18362,"ELEMENT_SET_NO":999,"REV_AT_EPOCH":88603,"BSTAR":0.00017294,"MEAN_MOTION_DOT":1.12e-6,"MEAN_MOTION_DDOT":0},{"OBJECT_NAME":"OSCAR 23","OBJECT_ID":"1988-033A","EPOCH":"2026-03-03T20:00:01.046016","MEAN_MOTION":13.27802734,"ECCENTRICITY":0.0188195,"INCLINATION":90.3283,"RA_OF_ASC_NODE":18.9177,"ARG_OF_PERICENTER":315.3849,"MEAN_ANOMALY":100.2192,"EPHEMERIS_TYPE":0,"CLASSIFICATION_TYPE":"U","NORAD_CAT_ID":19070,"ELEMENT_SET_NO":999,"REV_AT_EPOCH":83329,"BSTAR":0.00018462,"MEAN_MOTION_DOT":9.8e-7,"MEAN_MOTION_DDOT":0},{"OBJECT_NAME":"OSCAR 32","OBJECT_ID":"1988-033B","EPOCH":"2026-03-03T19:12:53.496288","MEAN_MOTION":13.27967366,"ECCENTRICITY":0.01862901,"INCLINATION":90.3288,"RA_OF_ASC_NODE":19.053,"ARG_OF_PERICENTER":302.1797,"MEAN_ANOMALY":115.7774,"EPHEMERIS_TYPE":0,"CLASSIFICATION_TYPE":"U","NORAD_CAT_ID":19071,"ELEMENT_SET_NO":999,"REV_AT_EPOCH":83341,"BSTAR":0.00014685369,"MEAN_MOTION_DOT":7.9e-7,"MEAN_MOTION_DDOT":0},{"OBJECT_NAME":"NOVA 2","OBJECT_ID":"1988-052A","EPOCH":"2026-03-04T01:24:33.641280","MEAN_MOTION":13.22946885,"ECCENTRICITY":0.0031436,"INCLINATION":89.978,"RA_OF_ASC_NODE":78.134,"ARG_OF_PERICENTER":146.5431,"MEAN_ANOMALY":234.5441,"EPHEMERIS_TYPE":0,"CLASSIFICATION_TYPE":"U","NORAD_CAT_ID":19223,"ELEMENT_SET_NO":999,"REV_AT_EPOCH":82023,"BSTAR":0.00019627,"MEAN_MOTION_DOT":9.2e-7,"MEAN_MOTION_DDOT":0},{"OBJECT_NAME":"OSCAR 25","OBJECT_ID":"1988-074A","EPOCH":"2026-03-03T19:52:14.244096","MEAN_MOTION":13.42640433,"ECCENTRICITY":0.0096877,"INCLINATION":90.041,"RA_OF_ASC_NODE":20.5175,"ARG_OF_PERICENTER":16.1331,"MEAN_ANOMALY":42.6986,"EPHEMERIS_TYPE":0,"CLASSIFICATION_TYPE":"U","NORAD_CAT_ID":19419,"ELEMENT_SET_NO":999,"REV_AT_EPOCH":83728,"BSTAR":0.0002041,"MEAN_MOTION_DOT":1.28e-6,"MEAN_MOTION_DDOT":0}]
